HIMAWARI-8              
1 40267U 14060A   23281.76456828 -.00000282  00000+0  00000+0 0  9993
2 40267   0.0123 158.2362 0000847  54.4043 220.4048  1.00273565 33019
